[{"OBJECT_NAME":"TRANSPORTER-10 OBJECT AD","OBJECT_ID":"2024-043AD","EPOCH":"2026-03-09T20:38:52.416960","MEAN_MOTION":15.34189901,"ECCENTRICITY":0.00089841,"INCLINATION":97.547,"RA_OF_ASC_NODE":207.3753,"ARG_OF_PERICENTER":221.4908,"MEAN_ANOMALY":138.5653,"EPHEMERIS_TYPE":0,"CLASSIFICATION_TYPE":"U","NORAD_CAT_ID":59125,"ELEMENT_SET_NO":999,"REV_AT_EPOCH":11202,"BSTAR":0.00036310552,"MEAN_MOTION_DOT":0.00011954,"MEAN_MOTION_DDOT":0},{"OBJECT_NAME":"STARLINK-33819","OBJECT_ID":"2025-071B","EPOCH":"2026-03-09T12:33:43.236576","MEAN_MOTION":15.30189397,"ECCENTRICITY":0.00011085,"INCLINATION":53.1601,"RA_OF_ASC_NODE":142.8886,"ARG_OF_PERICENTER":97.8644,"MEAN_ANOMALY":262.2482,"EPHEMERIS_TYPE":0,"CLASSIFICATION_TYPE":"U","NORAD_CAT_ID":63494,"ELEMENT_SET_NO":999,"REV_AT_EPOCH":5269,"BSTAR":0.00050798201,"MEAN_MOTION_DOT":0.00014711,"MEAN_MOTION_DDOT":0}]
